{"type": "FeatureCollection", "features": [ {"type": "Feature", "properties": {"norad_id": 66052, "name": "HRC MONOBLOCK CAMERA", "group": "stations", "lat": -29.787229423334455, "lon": -25.064472073324158, "alt_km": 405.86440109109844, "timestamp": "2025-12-15T10:55:19.884779+00:00", "meta": {"OBJECT_NAME": "HRC MONOBLOCK CAMERA", "OBJECT_ID": "1998-067XR", "EPOCH": "2025-12-14T23:10:53.339232", "MEAN_MOTION": 15.54310569, "ECCENTRICITY": 0.00030025, "INCLINATION": 51.6288, "RA_OF_ASC_NODE": 130.4053, "ARG_OF_PERICENTER": 194.2306, "MEAN_ANOMALY": 165.8601, "EPHEMERIS_TYPE": 0, "CLASSIFICATION_TYPE": "U", "NORAD_CAT_ID": 66052, "ELEMENT_SET_NO": 999, "REV_AT_EPOCH": 918, "BSTAR": 0.00041495523, "MEAN_MOTION_DOT": 0.00027269, "MEAN_MOTION_DDOT": 0}, "tle": {"line1": "1 66052U 98067XR  25348.96589513  .00027269  00000+0  41496-3 0  9999", "line2": "2 66052  51.6288 130.4053 0003002 194.2306 165.8601 15.54310569  9181"}}, "geometry": {"type": "Point", "coordinates": [-25.064472073324158, -29.787229423334455]}}, {"type": "Feature", "properties": {"norad_id": 66174, "name": "HTV-X1", "group": "stations", "lat": 45.94361596019701, "lon": -176.00114005053015, "alt_km": 413.7460366773694, "timestamp": "2025-12-15T10:55:19.884789+00:00", "meta": {"OBJECT_NAME": "HTV-X1", "OBJECT_ID": "2025-241A", "EPOCH": "2025-12-14T20:42:23.988960", "MEAN_MOTION": 15.4959536, "ECCENTRICITY": 0.00032074, "INCLINATION": 51.6306, "RA_OF_ASC_NODE": 131.9662, "ARG_OF_PERICENTER": 249.8734, "MEAN_ANOMALY": 110.1909, "EPHEMERIS_TYPE": 0, "CLASSIFICATION_TYPE": "U", "NORAD_CAT_ID": 66174, "ELEMENT_SET_NO": 999, "REV_AT_EPOCH": 51, "BSTAR": 0.00013765617, "MEAN_MOTION_DOT": 7.299e-05, "MEAN_MOTION_DDOT": 0}, "tle": {"line1": "1 66174U 25241A   25348.86277765  .00007299  00000+0  13766-3 0  9990", "line2": "2 66174  51.6306 131.9662 0003207 249.8734 110.1909 15.49595360   518"}}, "geometry": {"type": "Point", "coordinates": [-176.00114005053015, 45.94361596019701]}}, {"type": "Feature", "properties": {"norad_id": 66515, "name": "SZ-21 MODULE", "group": "stations", "lat": -27.287529985515448, "lon": -144.7930772388272, "alt_km": 379.8321436858914, "timestamp": "2025-12-15T10:55:19.884800+00:00", "meta": {"OBJECT_NAME": "SZ-21 MODULE", "OBJECT_ID": "2025-246C", "EPOCH": "2025-12-14T06:21:31.494240", "MEAN_MOTION": 15.62581213, "ECCENTRICITY": 0.00062526, "INCLINATION": 41.4775, "RA_OF_ASC_NODE": 6.7415, "ARG_OF_PERICENTER": 268.458, "MEAN_ANOMALY": 91.5544, "EPHEMERIS_TYPE": 0, "CLASSIFICATION_TYPE": "U", "NORAD_CAT_ID": 66515, "ELEMENT_SET_NO": 999, "REV_AT_EPOCH": 468, "BSTAR": 0.00032565972, "MEAN_MOTION_DOT": 0.0002972, "MEAN_MOTION_DDOT": 0}, "tle": {"line1": "1 66515U 25246C   25348.26494785  .00029720  00000+0  32566-3 0  9993", "line2": "2 66515  41.4775   6.7415 0006252 268.4580  91.5544 15.62581213  4684"}}, "geometry": {"type": "Point", "coordinates": [-144.7930772388272, -27.287529985515448]}}, {"type": "Feature", "properties": {"norad_id": 66645, "name": "SHENZHOU-22", "group": "stations", "lat": -40.20030177189231, "lon": -72.90219434110274, "alt_km": 396.1993064521839, "timestamp": "2025-12-15T10:55:19.884812+00:00", "meta": {"OBJECT_NAME": "SHENZHOU-22", "OBJECT_ID": "2025-272A", "EPOCH": "2025-12-14T18:20:35.966688", "MEAN_MOTION": 15.59276671, "ECCENTRICITY": 0.00079692, "INCLINATION": 41.4686, "RA_OF_ASC_NODE": 4.4163, "ARG_OF_PERICENTER": 47.9044, "MEAN_ANOMALY": 312.2471, "EPHEMERIS_TYPE": 0, "CLASSIFICATION_TYPE": "U", "NORAD_CAT_ID": 66645, "ELEMENT_SET_NO": 999, "REV_AT_EPOCH": 26357, "BSTAR": 0.0002758625, "MEAN_MOTION_DOT": 0.00022075, "MEAN_MOTION_DDOT": 0}, "tle": {"line1": "1 66645U 25272A   25348.76430517  .00022075  00000+0  27586-3 0  9996", "line2": "2 66645  41.4686   4.4163 0007969  47.9044 312.2471 15.59276671263577"}}, "geometry": {"type": "Point", "coordinates": [-72.90219434110274, -40.20030177189231]}}, {"type": "Feature", "properties": {"norad_id": 66664, "name": "SOYUZ-MS 28", "group": "stations", "lat": 45.943616920336005, "lon": -176.0011373118345, "alt_km": 413.7460365438592, "timestamp": "2025-12-15T10:55:19.884822+00:00", "meta": {"OBJECT_NAME": "SOYUZ-MS 28", "OBJECT_ID": "2025-275A", "EPOCH": "2025-12-14T20:42:23.988960", "MEAN_MOTION": 15.4959536, "ECCENTRICITY": 0.00032074, "INCLINATION": 51.6306, "RA_OF_ASC_NODE": 131.9662, "ARG_OF_PERICENTER": 249.8734, "MEAN_ANOMALY": 110.1909, "EPHEMERIS_TYPE": 0, "CLASSIFICATION_TYPE": "U", "NORAD_CAT_ID": 66664, "ELEMENT_SET_NO": 999, "REV_AT_EPOCH": 128, "BSTAR": 0.00013765617, "MEAN_MOTION_DOT": 7.299e-05, "MEAN_MOTION_DDOT": 0}, "tle": {"line1": "1 66664U 25275A   25348.86277765  .00007299  00000+0  13766-3 0  9991", "line2": "2 66664  51.6306 131.9662 0003207 249.8734 110.1909 15.49595360  1287"}}, "geometry": {"type": "Point", "coordinates": [-176.0011373118345, 45.943616920336005]}}, {"type": "Feature", "properties": {"norad_id": 66906, "name": "1998-067XS", "group": "stations", "lat": 48.7040783606458, "lon": -115.47204571095612, "alt_km": 408.5945016581172, "timestamp": "2025-12-15T10:55:19.884833+00:00", "meta": {"OBJECT_NAME": "1998-067XS", "OBJECT_ID": "1998-067XS", "EPOCH": "2025-12-14T03:31:53.110272", "MEAN_MOTION": 15.5066238, "ECCENTRICITY": 0.00034792, "INCLINATION": 51.6304, "RA_OF_ASC_NODE": 135.4381, "ARG_OF_PERICENTER": 209.6903, "MEAN_ANOMALY": 150.3889, "EPHEMERIS_TYPE": 0, "CLASSIFICATION_TYPE": "U", "NORAD_CAT_ID": 66906, "ELEMENT_SET_NO": 999, "REV_AT_EPOCH": 183, "BSTAR": 0.00050586866, "MEAN_MOTION_DOT": 0.0002921, "MEAN_MOTION_DDOT": 0}, "tle": {"line1": "1 66906U 98067XS  25348.14714248  .00029210  00000+0  50587-3 0  9991", "line2": "2 66906  51.6304 135.4381 0003479 209.6903 150.3889 15.50662380  1837"}}, "geometry": {"type": "Point", "coordinates": [-115.47204571095612, 48.7040783606458]}}, {"type": "Feature", "properties": {"norad_id": 66907, "name": "1998-067XT", "group": "stations", "lat": 35.960620938630846, "lon": -86.18983029882631, "alt_km": 407.6525641842218, "timestamp": "2025-12-15T10:55:19.884843+00:00", "meta": {"OBJECT_NAME": "1998-067XT", "OBJECT_ID": "1998-067XT", "EPOCH": "2025-12-14T20:26:51.623232", "MEAN_MOTION": 15.5174474, "ECCENTRICITY": 0.0004185, "INCLINATION": 51.6299, "RA_OF_ASC_NODE": 131.8946, "ARG_OF_PERICENTER": 238.563, "MEAN_ANOMALY": 121.4951, "EPHEMERIS_TYPE": 0, "CLASSIFICATION_TYPE": "U", "NORAD_CAT_ID": 66907, "ELEMENT_SET_NO": 999, "REV_AT_EPOCH": 194, "BSTAR": 0.00073206152, "MEAN_MOTION_DOT": 0.00044251, "MEAN_MOTION_DDOT": 0}, "tle": {"line1": "1 66907U 98067XT  25348.85198638  .00044251  00000+0  73206-3 0  9994", "line2": "2 66907  51.6299 131.8946 0004185 238.5630 121.4951 15.51744740  1944"}}, "geometry": {"type": "Point", "coordinates": [-86.18983029882631, 35.960620938630846]}}, {"type": "Feature", "properties": {"norad_id": 66908, "name": "1998-067XU", "group": "stations", "lat": 34.18258052280463, "lon": -83.66433467511865, "alt_km": 407.5022313585896, "timestamp": "2025-12-15T10:55:19.884853+00:00", "meta": {"OBJECT_NAME": "1998-067XU", "OBJECT_ID": "1998-067XU", "EPOCH": "2025-12-14T18:53:29.082624", "MEAN_MOTION": 15.5183473, "ECCENTRICITY": 0.00042823, "INCLINATION": 51.6294, "RA_OF_ASC_NODE": 132.2114, "ARG_OF_PERICENTER": 238.4154, "MEAN_ANOMALY": 121.6418, "EPHEMERIS_TYPE": 0, "CLASSIFICATION_TYPE": "U", "NORAD_CAT_ID": 66908, "ELEMENT_SET_NO": 999, "REV_AT_EPOCH": 193, "BSTAR": 0.00094476318, "MEAN_MOTION_DOT": 0.00057527, "MEAN_MOTION_DDOT": 0}, "tle": {"line1": "1 66908U 98067XU  25348.78714216  .00057527  00000+0  94476-3 0  9995", "line2": "2 66908  51.6294 132.2114 0004282 238.4154 121.6418 15.51834730  1938"}}, "geometry": {"type": "Point", "coordinates": [-83.66433467511865, 34.18258052280463]}}, {"type": "Feature", "properties": {"norad_id": 66909, "name": "SILVERSAT", "group": "stations", "lat": 32.081493733495684, "lon": -80.89476877492851, "alt_km": 407.42440759248257, "timestamp": "2025-12-15T10:55:19.884863+00:00", "meta": {"OBJECT_NAME": "SILVERSAT", "OBJECT_ID": "1998-067XV", "EPOCH": "2025-12-14T21:58:11.659008", "MEAN_MOTION": 15.51959159, "ECCENTRICITY": 0.00041685, "INCLINATION": 51.6297, "RA_OF_ASC_NODE": 131.568, "ARG_OF_PERICENTER": 239.8452, "MEAN_ANOMALY": 120.2125, "EPHEMERIS_TYPE": 0, "CLASSIFICATION_TYPE": "U", "NORAD_CAT_ID": 66909, "ELEMENT_SET_NO": 999, "REV_AT_EPOCH": 195, "BSTAR": 0.00078463431, "MEAN_MOTION_DOT": 0.00047853, "MEAN_MOTION_DDOT": 0}, "tle": {"line1": "1 66909U 98067XV  25348.91541272  .00047853  00000+0  78463-3 0  9990", "line2": "2 66909  51.6297 131.5680 0004168 239.8452 120.2125 15.51959159  1956"}}, "geometry": {"type": "Point", "coordinates": [-80.89476877492851, 32.081493733495684]}}, {"type": "Feature", "properties": {"norad_id": 66910, "name": "1998-067XW", "group": "stations", "lat": 25.49736305173165, "lon": -73.33631931926625, "alt_km": 406.6712925896718, "timestamp": "2025-12-15T10:55:19.884872+00:00", "meta": {"OBJECT_NAME": "1998-067XW", "OBJECT_ID": "1998-067XW", "EPOCH": "2025-12-14T23:28:33.119904", "MEAN_MOTION": 15.52053849, "ECCENTRICITY": 0.00048717, "INCLINATION": 51.6296, "RA_OF_ASC_NODE": 131.2373, "ARG_OF_PERICENTER": 219.7417, "MEAN_ANOMALY": 140.3216, "EPHEMERIS_TYPE": 0, "CLASSIFICATION_TYPE": "U", "NORAD_CAT_ID": 66910, "ELEMENT_SET_NO": 999, "REV_AT_EPOCH": 196, "BSTAR": 0.00071781086, "MEAN_MOTION_DOT": 0.0004387, "MEAN_MOTION_DDOT": 0}, "tle": {"line1": "1 66910U 98067XW  25348.97816111  .00043870  00000+0  71781-3 0  9996", "line2": "2 66910  51.6296 131.2373 0004871 219.7417 140.3216 15.52053849  1969"}}, "geometry": {"type": "Point", "coordinates": [-73.33631931926625, 25.49736305173165]}}]}